TEVEL2-6                
1 63215U 25052F   26068.64958975  .00021046  00000+0  70909-3 0  9996
2 63215  97.4016 325.0381 0004769  95.6604 264.5181 15.30760889 54861
STARLINK-36420          
1 67347U 26003P   26068.50054338  .00027877  00000+0  10183-2 0  9993
2 67347  43.0005 228.2450 0001566 255.7732 104.2945 15.27592799  8798
